[
  {
    "name": "STARLINK-34949",
    "tle1": "1 65175U 25175B   26079.37420028  .00002096  00000+0  14944-3 0  9995",
    "tle2": "2 65175  97.6036 313.1185 0002407  69.6117 290.5368 15.05648681 34253"
  },
  {
    "name": "STARLINK-34707",
    "tle1": "1 65176U 25175C   26079.37142310  .00002702  00000+0  19141-3 0  9999",
    "tle2": "2 65176  97.6035 313.1214 0002667  61.7754 298.3742 15.05652822 34247"
  },
  {
    "name": "STARLINK-34967",
    "tle1": "1 65177U 25175D   26079.30219609  .00004977  00000+0  34878-3 0  9999",
    "tle2": "2 65177  97.6032 313.0608 0002531  80.0073 280.1439 15.05658475 34230"
  },
  {
    "name": "STARLINK-34929",
    "tle1": "1 65178U 25175E   26079.36588433  .00003913  00000+0  27522-3 0  9997",
    "tle2": "2 65178  97.6030 313.1299 0002838  81.7168 278.4381 15.05656415 34248"
  },
  {
    "name": "STARLINK-34932",
    "tle1": "1 65179U 25175F   26079.62618080  .00004575  00000+0  32101-3 0  9993",
    "tle2": "2 65179  97.6025 313.3996 0002942  84.0024 276.1538 15.05658639 34285"
  },
  {
    "name": "STARLINK-34862",
    "tle1": "1 65180U 25175G   26079.62341529  .00000642  00000+0  48732-4 0  9995",
    "tle2": "2 65180  97.6018 313.4028 0002794  81.5281 278.6262 15.05643582 34280"
  },
  {
    "name": "STARLINK-34942",
    "tle1": "1 65181U 25175H   26079.36312599  .00004784  00000+0  33540-3 0  9993",
    "tle2": "2 65181  97.6029 313.1339 0003117  83.0259 277.1322 15.05660661 34218"
  },
  {
    "name": "STARLINK-34944",
    "tle1": "1 65182U 25175J   26079.35481002  .00003149  00000+0  22231-3 0  9998",
    "tle2": "2 65182  97.6015 313.1445 0002441  85.1894 274.9611 15.05654695 34248"
  },
  {
    "name": "STARLINK-34939",
    "tle1": "1 65183U 25175K   26079.61789172  .00008023  00000+0  55937-3 0  9992",
    "tle2": "2 65183  97.6017 313.4100 0001639  90.4303 269.7112 15.05665299 34255"
  },
  {
    "name": "STARLINK-34947",
    "tle1": "1 65184U 25175L   26079.21637494  .00003964  00000+0  27890-3 0  9994",
    "tle2": "2 65184  97.6020 313.0203 0002455  55.6171 304.5287 15.05635740 34229"
  },
  {
    "name": "STARLINK-34945",
    "tle1": "1 65185U 25175M   26079.21359292  .00004220  00000+0  29651-3 0  9995",
    "tle2": "2 65185  97.6027 313.0231 0002302  87.4364 272.7126 15.05651242 34229"
  },
  {
    "name": "STARLINK-34965",
    "tle1": "1 65186U 25175N   26079.40742483  .00003492  00000+0  24610-3 0  9995",
    "tle2": "2 65186  97.6030 313.2274 0002107  76.3643 283.7818 15.05654818 34258"
  },
  {
    "name": "STARLINK-34915",
    "tle1": "1 65187U 25175P   26079.21081794  .00003401  00000+0  23979-3 0  9993",
    "tle2": "2 65187  97.6027 313.0269 0002244  88.1943 271.9541 15.05654972 34223"
  },
  {
    "name": "STARLINK-34972",
    "tle1": "1 65188U 25175Q   26079.60402957  .00004356  00000+0  30583-3 0  9994",
    "tle2": "2 65188  97.6022 313.4286 0001538  85.3061 274.8341 15.05657970 34251"
  },
  {
    "name": "STARLINK-34866",
    "tle1": "1 65189U 25175R   26079.40188698  .00003284  00000+0  23167-3 0  9995",
    "tle2": "2 65189  97.6035 313.2347 0001988  83.2431 276.9022 15.05653819 34256"
  },
  {
    "name": "STARLINK-34917",
    "tle1": "1 65190U 25175S   26079.58335648  .00059246  00000+0  40781-2 0  9994",
    "tle2": "2 65190  97.6026 313.4236 0001733  64.8912 213.2729 15.05631326  5765"
  }
]