[{"OBJECT_NAME":"STARLINK-34949","OBJECT_ID":"2025-175B","EPOCH":"2026-03-20T08:58:50.904192","MEAN_MOTION":15.05648681,"ECCENTRICITY":0.00024075,"INCLINATION":97.6036,"RA_OF_ASC_NODE":313.1185,"ARG_OF_PERICENTER":69.6117,"MEAN_ANOMALY":290.5368,"EPHEMERIS_TYPE":0,"CLASSIFICATION_TYPE":"U","NORAD_CAT_ID":65175,"ELEMENT_SET_NO":999,"REV_AT_EPOCH":3425,"BSTAR":0.00014943719,"MEAN_MOTION_DOT":2.096e-5,"MEAN_MOTION_DDOT":0},{"OBJECT_NAME":"STARLINK-34707","OBJECT_ID":"2025-175C","EPOCH":"2026-03-20T08:54:50.955840","MEAN_MOTION":15.05652822,"ECCENTRICITY":0.00026674,"INCLINATION":97.6035,"RA_OF_ASC_NODE":313.1214,"ARG_OF_PERICENTER":61.7754,"MEAN_ANOMALY":298.3742,"EPHEMERIS_TYPE":0,"CLASSIFICATION_TYPE":"U","NORAD_CAT_ID":65176,"ELEMENT_SET_NO":999,"REV_AT_EPOCH":3424,"BSTAR":0.0001914107,"MEAN_MOTION_DOT":2.702e-5,"MEAN_MOTION_DDOT":0},{"OBJECT_NAME":"STARLINK-34967","OBJECT_ID":"2025-175D","EPOCH":"2026-03-20T07:15:09.742176","MEAN_MOTION":15.05658475,"ECCENTRICITY":0.0002531,"INCLINATION":97.6032,"RA_OF_ASC_NODE":313.0608,"ARG_OF_PERICENTER":80.0073,"MEAN_ANOMALY":280.1439,"EPHEMERIS_TYPE":0,"CLASSIFICATION_TYPE":"U","NORAD_CAT_ID":65177,"ELEMENT_SET_NO":999,"REV_AT_EPOCH":3423,"BSTAR":0.00034878,"MEAN_MOTION_DOT":4.977e-5,"MEAN_MOTION_DDOT":0},{"OBJECT_NAME":"STARLINK-34929","OBJECT_ID":"2025-175E","EPOCH":"2026-03-20T08:46:52.406112","MEAN_MOTION":15.05656415,"ECCENTRICITY":0.00028381,"INCLINATION":97.603,"RA_OF_ASC_NODE":313.1299,"ARG_OF_PERICENTER":81.7168,"MEAN_ANOMALY":278.4381,"EPHEMERIS_TYPE":0,"CLASSIFICATION_TYPE":"U","NORAD_CAT_ID":65178,"ELEMENT_SET_NO":999,"REV_AT_EPOCH":3424,"BSTAR":0.00027521941,"MEAN_MOTION_DOT":3.913e-5,"MEAN_MOTION_DDOT":0},{"OBJECT_NAME":"STARLINK-34932","OBJECT_ID":"2025-175F","EPOCH":"2026-03-20T15:01:42.021120","MEAN_MOTION":15.05658639,"ECCENTRICITY":0.00029429,"INCLINATION":97.6025,"RA_OF_ASC_NODE":313.3996,"ARG_OF_PERICENTER":84.0024,"MEAN_ANOMALY":276.1538,"EPHEMERIS_TYPE":0,"CLASSIFICATION_TYPE":"U","NORAD_CAT_ID":65179,"ELEMENT_SET_NO":999,"REV_AT_EPOCH":3428,"BSTAR":0.00032101248,"MEAN_MOTION_DOT":4.575e-5,"MEAN_MOTION_DDOT":0},{"OBJECT_NAME":"STARLINK-34862","OBJECT_ID":"2025-175G","EPOCH":"2026-03-20T14:57:43.081056","MEAN_MOTION":15.05643582,"ECCENTRICITY":0.00027946,"INCLINATION":97.6018,"RA_OF_ASC_NODE":313.4028,"ARG_OF_PERICENTER":81.5281,"MEAN_ANOMALY":278.6262,"EPHEMERIS_TYPE":0,"CLASSIFICATION_TYPE":"U","NORAD_CAT_ID":65180,"ELEMENT_SET_NO":999,"REV_AT_EPOCH":3428,"BSTAR":4.873226e-5,"MEAN_MOTION_DOT":6.42e-6,"MEAN_MOTION_DDOT":0},{"OBJECT_NAME":"STARLINK-34942","OBJECT_ID":"2025-175H","EPOCH":"2026-03-20T08:42:54.085536","MEAN_MOTION":15.05660661,"ECCENTRICITY":0.00031171,"INCLINATION":97.6029,"RA_OF_ASC_NODE":313.1339,"ARG_OF_PERICENTER":83.0259,"MEAN_ANOMALY":277.1322,"EPHEMERIS_TYPE":0,"CLASSIFICATION_TYPE":"U","NORAD_CAT_ID":65181,"ELEMENT_SET_NO":999,"REV_AT_EPOCH":3421,"BSTAR":0.00033540459,"MEAN_MOTION_DOT":4.784e-5,"MEAN_MOTION_DDOT":0},{"OBJECT_NAME":"STARLINK-34944","OBJECT_ID":"2025-175J","EPOCH":"2026-03-20T08:30:55.585728","MEAN_MOTION":15.05654695,"ECCENTRICITY":0.00024414,"INCLINATION":97.6015,"RA_OF_ASC_NODE":313.1445,"ARG_OF_PERICENTER":85.1894,"MEAN_ANOMALY":274.9611,"EPHEMERIS_TYPE":0,"CLASSIFICATION_TYPE":"U","NORAD_CAT_ID":65182,"ELEMENT_SET_NO":999,"REV_AT_EPOCH":3424,"BSTAR":0.00022230728,"MEAN_MOTION_DOT":3.149e-5,"MEAN_MOTION_DDOT":0},{"OBJECT_NAME":"STARLINK-34939","OBJECT_ID":"2025-175K","EPOCH":"2026-03-20T14:49:45.844608","MEAN_MOTION":15.05665299,"ECCENTRICITY":0.0001639,"INCLINATION":97.6017,"RA_OF_ASC_NODE":313.41,"ARG_OF_PERICENTER":90.4303,"MEAN_ANOMALY":269.7112,"EPHEMERIS_TYPE":0,"CLASSIFICATION_TYPE":"U","NORAD_CAT_ID":65183,"ELEMENT_SET_NO":999,"REV_AT_EPOCH":3425,"BSTAR":0.00055937361,"MEAN_MOTION_DOT":8.023e-5,"MEAN_MOTION_DDOT":0},{"OBJECT_NAME":"STARLINK-34947","OBJECT_ID":"2025-175L","EPOCH":"2026-03-20T05:11:34.794816","MEAN_MOTION":15.0563574,"ECCENTRICITY":0.0002455,"INCLINATION":97.602,"RA_OF_ASC_NODE":313.0203,"ARG_OF_PERICENTER":55.6171,"MEAN_ANOMALY":304.5287,"EPHEMERIS_TYPE":0,"CLASSIFICATION_TYPE":"U","NORAD_CAT_ID":65184,"ELEMENT_SET_NO":999,"REV_AT_EPOCH":3422,"BSTAR":0.0002789,"MEAN_MOTION_DOT":3.964e-5,"MEAN_MOTION_DDOT":0},{"OBJECT_NAME":"STARLINK-34945","OBJECT_ID":"2025-175M","EPOCH":"2026-03-20T05:07:34.428288","MEAN_MOTION":15.05651242,"ECCENTRICITY":0.0002302,"INCLINATION":97.6027,"RA_OF_ASC_NODE":313.0231,"ARG_OF_PERICENTER":87.4364,"MEAN_ANOMALY":272.7126,"EPHEMERIS_TYPE":0,"CLASSIFICATION_TYPE":"U","NORAD_CAT_ID":65185,"ELEMENT_SET_NO":999,"REV_AT_EPOCH":3422,"BSTAR":0.00029651,"MEAN_MOTION_DOT":4.22e-5,"MEAN_MOTION_DDOT":0},{"OBJECT_NAME":"STARLINK-34965","OBJECT_ID":"2025-175N","EPOCH":"2026-03-20T09:46:41.505312","MEAN_MOTION":15.05654818,"ECCENTRICITY":0.00021075,"INCLINATION":97.603,"RA_OF_ASC_NODE":313.2274,"ARG_OF_PERICENTER":76.3643,"MEAN_ANOMALY":283.7818,"EPHEMERIS_TYPE":0,"CLASSIFICATION_TYPE":"U","NORAD_CAT_ID":65186,"ELEMENT_SET_NO":999,"REV_AT_EPOCH":3425,"BSTAR":0.00024609786,"MEAN_MOTION_DOT":3.492e-5,"MEAN_MOTION_DDOT":0},{"OBJECT_NAME":"STARLINK-34915","OBJECT_ID":"2025-175P","EPOCH":"2026-03-20T05:03:34.670016","MEAN_MOTION":15.05654972,"ECCENTRICITY":0.0002244,"INCLINATION":97.6027,"RA_OF_ASC_NODE":313.0269,"ARG_OF_PERICENTER":88.1943,"MEAN_ANOMALY":271.9541,"EPHEMERIS_TYPE":0,"CLASSIFICATION_TYPE":"U","NORAD_CAT_ID":65187,"ELEMENT_SET_NO":999,"REV_AT_EPOCH":3422,"BSTAR":0.00023979,"MEAN_MOTION_DOT":3.401e-5,"MEAN_MOTION_DDOT":0},{"OBJECT_NAME":"STARLINK-34972","OBJECT_ID":"2025-175Q","EPOCH":"2026-03-20T14:29:48.154848","MEAN_MOTION":15.0565797,"ECCENTRICITY":0.00015384,"INCLINATION":97.6022,"RA_OF_ASC_NODE":313.4286,"ARG_OF_PERICENTER":85.3061,"MEAN_ANOMALY":274.8341,"EPHEMERIS_TYPE":0,"CLASSIFICATION_TYPE":"U","NORAD_CAT_ID":65188,"ELEMENT_SET_NO":999,"REV_AT_EPOCH":3425,"BSTAR":0.00030582682,"MEAN_MOTION_DOT":4.356e-5,"MEAN_MOTION_DDOT":0},{"OBJECT_NAME":"STARLINK-34866","OBJECT_ID":"2025-175R","EPOCH":"2026-03-20T09:38:43.035072","MEAN_MOTION":15.05653819,"ECCENTRICITY":0.00019881,"INCLINATION":97.6035,"RA_OF_ASC_NODE":313.2347,"ARG_OF_PERICENTER":83.2431,"MEAN_ANOMALY":276.9022,"EPHEMERIS_TYPE":0,"CLASSIFICATION_TYPE":"U","NORAD_CAT_ID":65189,"ELEMENT_SET_NO":999,"REV_AT_EPOCH":3425,"BSTAR":0.00023166926,"MEAN_MOTION_DOT":3.284e-5,"MEAN_MOTION_DDOT":0},{"OBJECT_NAME":"STARLINK-34917","OBJECT_ID":"2025-175S","EPOCH":"2026-03-20T14:00:01.999872","MEAN_MOTION":15.05631326,"ECCENTRICITY":0.00017334,"INCLINATION":97.6026,"RA_OF_ASC_NODE":313.4236,"ARG_OF_PERICENTER":64.8912,"MEAN_ANOMALY":213.2729,"EPHEMERIS_TYPE":0,"CLASSIFICATION_TYPE":"U","NORAD_CAT_ID":65190,"ELEMENT_SET_NO":999,"REV_AT_EPOCH":576,"BSTAR":0.0040781176,"MEAN_MOTION_DOT":0.00059246,"MEAN_MOTION_DDOT":0}]
